OBJECT_NAME,OBJECT_ID,EPOCH,MEAN_MOTION,ECCENTRICITY,INCLINATION,RA_OF_ASC_NODE,ARG_OF_PERICENTER,MEAN_ANOMALY,EPHEMERIS_TYPE,CLASSIFICATION_TYPE,NORAD_CAT_ID,ELEMENT_SET_NO,REV_AT_EPOCH,BSTAR,MEAN_MOTION_DOT,MEAN_MOTION_DDOT
DMSP 5D-3 F16 (USA 172),2003-048A,2026-06-30T14:45:19.341216,14.14484160,.00081631,98.9887,205.5317,106.8557,6.5252,0,U,28054,999,17138,.29336955E-4,.11E-6,0
METEOSAT-9 (MSG-2),2005-049B,2026-06-29T21:25:50.589696,1.00278975,.00018795,9.3887,54.0422,0.6758,230.5171,0,U,28912,999,712,0,.127E-5,0
DMSP 5D-3 F17 (USA 191),2006-050A,2026-06-30T12:49:08.228928,14.14994739,.00106017,98.7380,187.8311,24.2033,335.9637,0,U,29522,999,1431,.39305937E-4,.33E-6,0
FENGYUN 3A,2008-026A,2026-06-30T08:50:56.610528,14.19573724,.00098846,98.6885,121.9554,89.7733,270.4576,0,U,32958,999,93727,.51550923E-4,.65E-6,0
GOES 14,2009-033A,2026-06-30T13:00:04.486176,1.00106579,.00022785,1.7229,82.8929,23.4204,141.3212,0,U,35491,999,672,0,-.324E-5,0
DMSP 5D-3 F18 (USA 210),2009-057A,2026-06-30T13:50:59.954784,14.14904214,.0010365,98.9044,162.3175,207.9564,152.1054,0,U,35951,999,86148,.15797142E-3,.261E-5,0
EWS-G2 (GOES 15),2010-008A,2026-06-30T12:40:05.136672,1.00268232,.00053953,1.3127,82.6673,44.8025,44.6480,0,U,36411,999,5977,0,.31E-6,0
COMS 1,2010-032A,2026-06-30T07:19:59.015424,0.99168295,.00118822,4.8371,75.2033,13.4117,320.9318,0,U,36744,999,5121,0,-.33E-6,0
FENGYUN 3B,2010-059A,2026-06-30T14:47:56.076000,14.14845019,.00225992,98.9616,227.6877,146.1954,5.2950,0,U,37214,999,80932,.86016389E-4,.121E-5,0
SUOMI NPP,2011-061A,2026-06-30T14:12:21.205440,14.19519995,.00007969,98.7955,122.3765,322.0785,38.0335,0,U,37849,999,76034,.50308932E-4,.62E-6,0
METEOSAT-10 (MSG-3),2012-035B,2026-06-30T07:13:59.589696,1.00269255,.00017009,4.7011,60.9585,13.1137,312.9416,0,U,38552,999,5098,0,.1E-7,0
METOP-B,2012-049A,2026-06-30T11:50:40.015680,14.21442894,.00014181,98.6498,232.7269,336.7677,23.3436,0,U,38771,999,71515,.70668436E-4,.111E-5,0
INSAT-3D,2013-038B,2026-06-30T12:58:49.605888,1.00270008,.00011365,1.9590,82.3849,10.1377,150.3013,0,U,39216,999,4721,0,-.33E-5,0
FENGYUN 3C,2013-052A,2026-06-30T13:01:06.509280,14.15757900,.00144785,98.4987,154.8044,349.8765,10.2116,0,U,39260,999,66045,.57348208E-4,.71E-6,0
METEOR-M 2,2014-037A,2026-06-30T12:28:21.385344,14.21464446,.00061216,98.5115,156.7860,10.1796,349.9505,0,U,40069,999,62121,-.48119264E-4,-.147E-5,0
HIMAWARI-8,2014-060A,2026-06-30T11:19:20.375040,1.00272906,.00011176,0.0179,7.3268,92.7584,128.9619,0,U,40267,999,4289,0,-.265E-5,0
FENGYUN 2G,2014-090A,2026-06-30T12:51:28.004256,1.00267656,.00036187,5.6716,72.6594,150.1606,348.2495,0,U,40367,999,4213,0,-.295E-5,0
METEOSAT-11 (MSG-4),2015-034A,2026-06-30T07:16:36.837696,1.00267182,.00022349,3.2333,71.0290,347.9888,337.8690,0,U,40732,999,734,0,.7E-6,0
ELEKTRO-L 2,2015-074A,2026-06-30T03:05:16.247328,1.00271247,.0000706,6.7257,70.3668,276.5342,323.0657,0,U,41105,999,3863,0,-.112E-5,0
SENTINEL-3A,2016-011A,2026-06-30T12:59:23.790912,14.26736236,.00014286,98.6245,248.7328,95.4943,264.6400,0,U,41335,999,53996,.6611564E-4,.116E-5,0
INSAT-3DR,2016-054A,2026-06-30T12:42:57.362112,1.00272411,.00100582,0.1381,86.0271,186.5269,270.7601,0,U,41752,999,3595,0,-.66E-6,0
HIMAWARI-9,2016-064A,2026-06-30T11:19:20.375040,1.00268792,.0001448,0.0363,264.6793,217.5339,106.9036,0,U,41836,999,3534,0,-.265E-5,0
GOES 16,2016-071A,2026-06-30T10:09:27.473760,1.00272064,.00006128,0.3729,85.5110,21.6977,218.9559,0,U,41866,999,3523,0,-.81E-6,0
FENGYUN 4A,2016-077A,2026-06-30T12:57:12.260736,1.00277229,.00079125,2.3554,80.1435,158.0034,358.4582,0,U,41882,999,3506,0,-.348E-5,0
CYGFM05,2016-078A,2026-06-30T09:18:52.572672,15.57216832,.00081876,34.9549,173.1377,267.4609,92.5178,0,U,41884,999,53081,.28033231E-3,.21122E-3,0
CYGFM04,2016-078B,2026-06-30T07:36:34.995744,15.62226848,.00069244,34.9312,140.6278,302.1921,57.8133,0,U,41885,999,53105,.3091871E-3,.28252E-3,0
CYGFM02,2016-078C,2026-06-30T07:00:40.818240,15.65341235,.00078386,34.9393,134.9390,304.6437,55.3551,0,U,41886,999,53122,.32319362E-3,.33447E-3,0
CYGFM01,2016-078D,2026-06-30T08:54:13.082400,15.57911705,.00080366,34.9380,174.2001,262.0465,97.9347,0,U,41887,999,53076,.27877232E-3,.21563E-3,0
CYGFM08,2016-078E,2026-06-30T07:22:51.753216,15.60672291,.00089336,34.9415,153.8484,289.9653,70.0110,0,U,41888,999,53102,.29994843E-3,.2581E-3,0
CYGFM07,2016-078G,2026-06-30T06:22:51.256128,15.60774517,.00073299,34.9434,142.4565,301.9501,58.0511,0,U,41890,999,53104,.30692003E-3,.26501E-3,0
CYGFM03,2016-078H,2026-06-30T05:41:11.725728,15.60764318,.00071751,34.9389,144.5826,289.6202,70.3749,0,U,41891,999,53101,.30281165E-3,.26133E-3,0
