DMSP 5D-3 F16 (USA 172) 
1 28054U 03048A   26181.61480719  .00000011  00000+0  29337-4 0  9997
2 28054  98.9887 205.5317 0008163 106.8557   6.5252 14.14484160171386
METEOSAT-9 (MSG-2)      
1 28912U 05049B   26180.89294664  .00000127  00000+0  00000+0 0  9993
2 28912   9.3887  54.0422 0001879   0.6758 230.5171  1.00278975  7125
DMSP 5D-3 F17 (USA 191) 
1 29522U 06050A   26181.53412302  .00000033  00000+0  39306-4 0  9999
2 29522  98.7380 187.8311 0010601  24.2033 335.9637 14.14994739 14314
FENGYUN 3A              
1 32958U 08026A   26181.36871077  .00000065  00000+0  51551-4 0  9991
2 32958  98.6885 121.9554 0009884  89.7733 270.4576 14.19573724937278
GOES 14                 
1 35491U 09033A   26181.54171859 -.00000324  00000+0  00000+0 0  9993
2 35491   1.7229  82.8929 0002278  23.4204 141.3212  1.00106579  6725
DMSP 5D-3 F18 (USA 210) 
1 35951U 09057A   26181.57708281  .00000261  00000+0  15797-3 0  9990
2 35951  98.9044 162.3175 0010365 207.9564 152.1054 14.14904214861487
EWS-G2 (GOES 15)        
1 36411U 10008A   26181.52783723  .00000031  00000+0  00000+0 0  9991
2 36411   1.3127  82.6673 0005395  44.8025  44.6480  1.00268232 59776
COMS 1                  
1 36744U 10032A   26181.30554416 -.00000033  00000+0  00000+0 0  9991
2 36744   4.8371  75.2033 0011882  13.4117 320.9318  0.99168295 51210
FENGYUN 3B              
1 37214U 10059A   26181.61662125  .00000121  00000+0  86016-4 0  9997
2 37214  98.9616 227.6877 0022599 146.1954   5.2950 14.14845019809324
SUOMI NPP               
1 37849U 11061A   26181.59191210  .00000062  00000+0  50309-4 0  9994
2 37849  98.7955 122.3765 0000796 322.0785  38.0335 14.19519995760346
METEOSAT-10 (MSG-3)     
1 38552U 12035B   26181.30138414  .00000001  00000+0  00000+0 0  9995
2 38552   4.7011  60.9585 0001700  13.1137 312.9416  1.00269255 50983
METOP-B                 
1 38771U 12049A   26181.49351870  .00000111  00000+0  70668-4 0  9990
2 38771  98.6498 232.7269 0001418 336.7677  23.3436 14.21442894715155
INSAT-3D                
1 39216U 13038B   26181.54085192 -.00000330  00000+0  00000+0 0  9993
2 39216   1.9590  82.3849 0001136  10.1377 150.3013  1.00270008 47216
FENGYUN 3C              
1 39260U 13052A   26181.54243645  .00000071  00000+0  57348-4 0  9990
2 39260  98.4987 154.8044 0014478 349.8765  10.2116 14.15757900660450
METEOR-M 2              
1 40069U 14037A   26181.51969196 -.00000147  00000+0 -48119-4 0  9998
2 40069  98.5115 156.7860 0006121  10.1796 349.9505 14.21464446621210
HIMAWARI-8              
1 40267U 14060A   26181.47176360 -.00000265  00000+0  00000+0 0  9994
2 40267   0.0179   7.3268 0001117  92.7584 128.9619  1.00272906 42895
FENGYUN 2G              
1 40367U 14090A   26181.53574079 -.00000295  00000+0  00000+0 0  9997
2 40367   5.6716  72.6594 0003618 150.1606 348.2495  1.00267656 42135
METEOSAT-11 (MSG-4)     
1 40732U 15034A   26181.30320414  .00000070  00000+0  00000+0 0  9999
2 40732   3.2333  71.0290 0002234 347.9888 337.8690  1.00267182  7346
ELEKTRO-L 2             
1 41105U 15074A   26181.12866027 -.00000112  00000+0  00000+0 0  9991
2 41105   6.7257  70.3668 0000706 276.5342 323.0657  1.00271247 38632
SENTINEL-3A             
1 41335U 16011A   26181.54124758  .00000116  00000+0  66116-4 0  9990
2 41335  98.6245 248.7328 0001428  95.4943 264.6400 14.26736236539969
INSAT-3DR               
1 41752U 16054A   26181.52983058 -.00000066  00000+0  00000+0 0  9994
2 41752   0.1381  86.0271 0010058 186.5269 270.7601  1.00272411 35952
HIMAWARI-9              
1 41836U 16064A   26181.47176360 -.00000265  00000+0  00000+0 0  9993
2 41836   0.0363 264.6793 0001448 217.5339 106.9036  1.00268792 35345
GOES 16                 
1 41866U 16071A   26181.42323465 -.00000081  00000+0  00000+0 0  9995
2 41866   0.3729  85.5110 0000612  21.6977 218.9559  1.00272064 35233
FENGYUN 4A              
1 41882U 16077A   26181.53972524 -.00000348  00000+0  00000+0 0  9993
2 41882   2.3554  80.1435 0007912 158.0034 358.4582  1.00277229 35064
CYGFM05                 
1 41884U 16078A   26181.38810848  .00021122  00000+0  28033-3 0  9991
2 41884  34.9549 173.1377 0008187 267.4609  92.5178 15.57216832530817
CYGFM04                 
1 41885U 16078B   26181.31707171  .00028252  00000+0  30919-3 0  9996
2 41885  34.9312 140.6278 0006924 302.1921  57.8133 15.62226848531052
CYGFM02                 
1 41886U 16078C   26181.29213910  .00033447  00000+0  32319-3 0  9995
2 41886  34.9393 134.9390 0007838 304.6437  55.3551 15.65341235531224
CYGFM01                 
1 41887U 16078D   26181.37098475  .00021563  00000+0  27877-3 0  9991
2 41887  34.9380 174.2001 0008036 262.0465  97.9347 15.57911705530765
CYGFM08                 
1 41888U 16078E   26181.30754344  .00025810  00000+0  29995-3 0  9991
2 41888  34.9415 153.8484 0008933 289.9653  70.0110 15.60672291531024
CYGFM07                 
1 41890U 16078G   26181.26587102  .00026501  00000+0  30692-3 0  9999
2 41890  34.9434 142.4565 0007329 301.9501  58.0511 15.60774517531044
CYGFM03                 
1 41891U 16078H   26181.23694127  .00026133  00000+0  30281-3 0  9998
2 41891  34.9389 144.5826 0007175 289.6202  70.3749 15.60764318531011
